{
  "norad_id": 62392,
  "name": "TOMORROW-S3",
  "history": [
    {
      "epoch": "2026-03-28T22:00:06.146784Z",
      "apogee_km": 483.4420920119401,
      "perigee_km": 480.1629037331668,
      "latitude_deg": 4.819148482385129e-05,
      "longitude_deg": -144.41537763103761,
      "height_km": 482.7791840306389,
      "semi_major_axis_km": 6859.939497872553,
      "eccentricity": 0.00023901,
      "inclination_deg": 45.0037,
      "raan_deg": 11.9405,
      "arg_perigee_deg": 233.4692,
      "mean_anomaly_deg": 126.5972,
      "mean_motion_rev_day": 15.2799641
    },
    {
      "epoch": "2026-03-29T01:08:23.193024Z",
      "apogee_km": 483.42169642535646,
      "perigee_km": 480.1700882343912,
      "latitude_deg": 2.296831348732114e-05,
      "longitude_deg": 167.67059539023472,
      "height_km": 482.7439134396948,
      "semi_major_axis_km": 6859.9328923298735,
      "eccentricity": 0.000237,
      "inclination_deg": 45.0038,
      "raan_deg": 11.2264,
      "arg_perigee_deg": 234.3622,
      "mean_anomaly_deg": 125.7041,
      "mean_motion_rev_day": 15.27998617
    },
    {
      "epoch": "2026-03-30T03:48:46.980576Z",
      "apogee_km": 483.43006881137626,
      "perigee_km": 480.002886014061,
      "latitude_deg": 1.6824836178260087e-05,
      "longitude_deg": 120.40524269697877,
      "height_km": 482.62656174873115,
      "semi_major_axis_km": 6859.853477412718,
      "eccentricity": 0.0002498,
      "inclination_deg": 45.0043,
      "raan_deg": 5.1556,
      "arg_perigee_deg": 237.9575,
      "mean_anomaly_deg": 122.1066,
      "mean_motion_rev_day": 15.28025151
    },
    {
      "epoch": "2026-03-30T11:39:28.971936Z",
      "apogee_km": 483.43907943172235,
      "perigee_km": 479.94907177369805,
      "latitude_deg": 4.6575481751775625e-05,
      "longitude_deg": 0.6227260530881165,
      "height_km": 482.59183834797625,
      "semi_major_axis_km": 6859.8310756027095,
      "eccentricity": 0.00025438,
      "inclination_deg": 45.0045,
      "raan_deg": 3.3702,
      "arg_perigee_deg": 239.0763,
      "mean_anomaly_deg": 120.9871,
      "mean_motion_rev_day": 15.28032636
    },
    {
      "epoch": "2026-03-31T11:11:34.200384Z",
      "apogee_km": 483.4468241956547,
      "perigee_km": 479.8234925416036,
      "latitude_deg": -3.6044523736376573e-06,
      "longitude_deg": 1.277852903959875,
      "height_km": 482.4738504508968,
      "semi_major_axis_km": 6859.772158368629,
      "eccentricity": 0.0002641,
      "inclination_deg": 45.0049,
      "raan_deg": 358.0137,
      "arg_perigee_deg": 242.4654,
      "mean_anomaly_deg": 117.5961,
      "mean_motion_rev_day": 15.28052322
    },
    {
      "epoch": "2026-04-01T10:43:38.314272Z",
      "apogee_km": 483.4529657034609,
      "perigee_km": 479.71304635617435,
      "latitude_deg": -9.264752003095084e-06,
      "longitude_deg": 1.9375807876037632,
      "height_km": 482.359491749986,
      "semi_major_axis_km": 6859.720006029817,
      "eccentricity": 0.0002726,
      "inclination_deg": 45.0049,
      "raan_deg": 352.6571,
      "arg_perigee_deg": 245.5091,
      "mean_anomaly_deg": 114.5508,
      "mean_motion_rev_day": 15.28069748
    },
    {
      "epoch": "2026-04-02T10:15:41.377536Z",
      "apogee_km": 483.4324246067781,
      "perigee_km": 479.592941486183,
      "latitude_deg": 4.055917921924711e-05,
      "longitude_deg": 2.6015531048757876,
      "height_km": 482.20872145545894,
      "semi_major_axis_km": 6859.64968304648,
      "eccentricity": 0.00027986,
      "inclination_deg": 45.005,
      "raan_deg": 347.3003,
      "arg_perigee_deg": 248.7869,
      "mean_anomaly_deg": 111.2716,
      "mean_motion_rev_day": 15.28093246
    },
    {
      "epoch": "2026-04-03T09:47:43.097280Z",
      "apogee_km": 483.38758428371057,
      "perigee_km": 479.4846243788079,
      "latitude_deg": -1.944018830890284e-05,
      "longitude_deg": 3.2708289400724424,
      "height_km": 482.0393894095273,
      "semi_major_axis_km": 6859.573104331259,
      "eccentricity": 0.00028449,
      "inclination_deg": 45.0049,
      "raan_deg": 341.9433,
      "arg_perigee_deg": 252.038,
      "mean_anomaly_deg": 108.0193,
      "mean_motion_rev_day": 15.28118835
    },
    {
      "epoch": "2026-04-04T01:29:03.470208Z",
      "apogee_km": 483.34925368353106,
      "perigee_km": 479.41888530113374,
      "latitude_deg": -5.815332164844319e-05,
      "longitude_deg": 123.72037911752341,
      "height_km": 481.90636116156037,
      "semi_major_axis_km": 6859.521069492333,
      "eccentricity": 0.00028649,
      "inclination_deg": 45.0046,
      "raan_deg": 338.3721,
      "arg_perigee_deg": 254.6323,
      "mean_anomaly_deg": 105.4243,
      "mean_motion_rev_day": 15.28136223
    },
    {
      "epoch": "2026-04-05T08:51:42.577920Z",
      "apogee_km": 483.2817392860552,
      "perigee_km": 479.3339915771021,
      "latitude_deg": 2.245996042298221e-05,
      "longitude_deg": 4.625779555277132,
      "height_km": 481.68673686826264,
      "semi_major_axis_km": 6859.444865431578,
      "eccentricity": 0.00028776,
      "inclination_deg": 45.0043,
      "raan_deg": 331.229,
      "arg_perigee_deg": 258.9785,
      "mean_anomaly_deg": 101.0775,
      "mean_motion_rev_day": 15.28161688
    },
    {
      "epoch": "2026-04-06T00:33:01.508832Z",
      "apogee_km": 483.261764159769,
      "perigee_km": 479.2972957821057,
      "latitude_deg": -8.776874381788594e-06,
      "longitude_deg": 125.08066093346615,
      "height_km": 481.5854263017338,
      "semi_major_axis_km": 6859.416529970937,
      "eccentricity": 0.00028898,
      "inclination_deg": 45.0045,
      "raan_deg": 327.6571,
      "arg_perigee_deg": 261.1685,
      "mean_anomaly_deg": 98.8871,
      "mean_motion_rev_day": 15.28171157
    },
    {
      "epoch": "2026-04-07T00:04:59.255904Z",
      "apogee_km": 483.1638890844233,
      "perigee_km": 479.3082354861135,
      "latitude_deg": -3.8599302903065404e-05,
      "longitude_deg": 125.76636208877065,
      "height_km": 481.4096411045464,
      "semi_major_axis_km": 6859.373062285268,
      "eccentricity": 0.00028105,
      "inclination_deg": 45.0039,
      "raan_deg": 322.2999,
      "arg_perigee_deg": 264.8783,
      "mean_anomaly_deg": 95.1779,
      "mean_motion_rev_day": 15.28185683
    },
    {
      "epoch": "2026-04-08T07:27:34.967232Z",
      "apogee_km": 483.07476267806123,
      "perigee_km": 479.29075034118523,
      "latitude_deg": -1.530051767175607e-05,
      "longitude_deg": 6.685493555012014,
      "height_km": 481.19545650269697,
      "semi_major_axis_km": 6859.3197565096225,
      "eccentricity": 0.00027583,
      "inclination_deg": 45.0035,
      "raan_deg": 315.1564,
      "arg_perigee_deg": 269.6585,
      "mean_anomaly_deg": 90.3982,
      "mean_motion_rev_day": 15.28203497
    },
    {
      "epoch": "2026-04-09T21:06:40.207392Z",
      "apogee_km": 482.9820534358705,
      "perigee_km": 479.26707737204833,
      "latitude_deg": -1.35358073420525e-05,
      "longitude_deg": 151.79486628639125,
      "height_km": 480.95957053922155,
      "semi_major_axis_km": 6859.261565403959,
      "eccentricity": 0.0002708,
      "inclination_deg": 45.0032,
      "raan_deg": 306.5839,
      "arg_perigee_deg": 275.1385,
      "mean_anomaly_deg": 84.9189,
      "mean_motion_rev_day": 15.28222944
    },
    {
      "epoch": "2026-04-10T06:31:26.233824Z",
      "apogee_km": 482.962226334409,
      "perigee_km": 479.2532955072829,
      "latitude_deg": 3.678792903263024e-05,
      "longitude_deg": 8.073569179297788,
      "height_km": 480.89636165032374,
      "semi_major_axis_km": 6859.244760920846,
      "eccentricity": 0.00027036,
      "inclination_deg": 45.003,
      "raan_deg": 304.4409,
      "arg_perigee_deg": 276.5873,
      "mean_anomaly_deg": 83.4703,
      "mean_motion_rev_day": 15.2822856
    },
    {
      "epoch": "2026-04-11T20:10:29.434944Z",
      "apogee_km": 482.865606721125,
      "perigee_km": 479.25355380195924,
      "latitude_deg": 1.7460557362721306e-05,
      "longitude_deg": 153.19154184082788,
      "height_km": 480.6666213317977,
      "semi_major_axis_km": 6859.196580261541,
      "eccentricity": 0.0002633,
      "inclination_deg": 45.0019,
      "raan_deg": 295.8685,
      "arg_perigee_deg": 282.6047,
      "mean_anomaly_deg": 77.4542,
      "mean_motion_rev_day": 15.28244662
    },
    {
      "epoch": "2026-04-13T05:07:08.636160Z",
      "apogee_km": 482.7791597291616,
      "perigee_km": 479.2746757003224,
      "latitude_deg": 2.8796830861723572e-05,
      "longitude_deg": 10.174342936994613,
      "height_km": 480.4895568954073,
      "semi_major_axis_km": 6859.163917714742,
      "eccentricity": 0.00025546,
      "inclination_deg": 45.0014,
      "raan_deg": 288.3676,
      "arg_perigee_deg": 287.8937,
      "mean_anomaly_deg": 72.1668,
      "mean_motion_rev_day": 15.28255578
    },
    {
      "epoch": "2026-04-14T18:46:09.674688Z",
      "apogee_km": 482.6900722317978,
      "perigee_km": 479.29891762070565,
      "latitude_deg": -4.5326172340595346e-05,
      "longitude_deg": 155.30070126555637,
      "height_km": 480.3019639240022,
      "semi_major_axis_km": 6859.131494926251,
      "eccentricity": 0.0002472,
      "inclination_deg": 45.001,
      "raan_deg": 279.7946,
      "arg_perigee_deg": 294.1387,
      "mean_anomaly_deg": 65.9237,
      "mean_motion_rev_day": 15.28266414
    },
    {
      "epoch": "2026-04-15T18:18:02.354400Z",
      "apogee_km": 482.63888424462675,
      "perigee_km": 479.31084316835586,
      "latitude_deg": -1.0231493274452542e-05,
      "longitude_deg": 156.00664307206557,
      "height_km": 480.2002562781445,
      "semi_major_axis_km": 6859.111863706491,
      "eccentricity": 0.0002426,
      "inclination_deg": 45.0007,
      "raan_deg": 274.4364,
      "arg_perigee_deg": 297.7724,
      "mean_anomaly_deg": 62.2913,
      "mean_motion_rev_day": 15.28272975
    }
  ]
}